{
  "type": "FeatureCollection",
  "features": [
    {
      "type": "Feature",
      "properties": {
        "norad_id": 34088,
        "name": "IRIDIUM 33 DEB",
        "group": "iridium-33-debris",
        "lat": 11.589845542987073,
        "lon": 25.26446404579939,
        "alt_km": 595.9035541169351,
        "timestamp": "2025-12-26T05:31:12.891584+00:00",
        "meta_object_name": "IRIDIUM 33 DEB",
        "meta_object_id": "1997-051CX",
        "meta_epoch": "2025-12-25T13:54:21.561408",
        "meta_mean_motion": 14.91956095,
        "meta_eccentricity": 0.0007066,
        "meta_inclination": 86.3844,
        "meta_ra_of_asc_node": 24.8206,
        "meta_arg_of_pericenter": 136.8493,
        "meta_mean_anomaly": 342.8707,
        "meta_ephemeris_type": 0,
        "meta_classification_type": "U",
        "meta_norad_cat_id": 34088,
        "meta_element_set_no": 999,
        "meta_rev_at_epoch": 88933,
        "meta_bstar": 0.0024865,
        "meta_mean_motion_dot": 0.00025266,
        "meta_mean_motion_ddot": 0,
        "tle_line1": "1 34088U 97051CX  25359.57941622  .00025266  00000+0  24865-2 0  9992",
        "tle_line2": "2 34088  86.3844  24.8206 0007066 136.8493 342.8707 14.91956095889334"
      },
      "geometry": {
        "type": "Point",
        "coordinates": [
          25.26446404579939,
          11.589845542987073
        ]
      }
    },
    {
      "type": "Feature",
      "properties": {
        "norad_id": 34091,
        "name": "IRIDIUM 33 DEB",
        "group": "iridium-33-debris",
        "lat": 76.91262563687286,
        "lon": -135.32667258210017,
        "alt_km": 632.3574275164774,
        "timestamp": "2025-12-26T05:31:12.891594+00:00",
        "meta_object_name": "IRIDIUM 33 DEB",
        "meta_object_id": "1997-051DA",
        "meta_epoch": "2025-12-25T16:05:58.411680",
        "meta_mean_motion": 14.82763953,
        "meta_eccentricity": 0.0034351,
        "meta_inclination": 86.341,
        "meta_ra_of_asc_node": 60.9075,
        "meta_arg_of_pericenter": 246.9667,
        "meta_mean_anomaly": 112.7932,
        "meta_ephemeris_type": 0,
        "meta_classification_type": "U",
        "meta_norad_cat_id": 34091,
        "meta_element_set_no": 999,
        "meta_rev_at_epoch": 88058,
        "meta_bstar": 0.0047741702,
        "meta_mean_motion_dot": 0.00039162,
        "meta_mean_motion_ddot": 0,
        "tle_line1": "1 34091U 97051DA  25359.67081495  .00039162  00000+0  47742-2 0  9999",
        "tle_line2": "2 34091  86.3410  60.9075 0034351 246.9667 112.7932 14.82763953880586"
      },
      "geometry": {
        "type": "Point",
        "coordinates": [
          -135.32667258210017,
          76.91262563687286
        ]
      }
    },
    {
      "type": "Feature",
      "properties": {
        "norad_id": 34097,
        "name": "IRIDIUM 33 DEB",
        "group": "iridium-33-debris",
        "lat": -28.013381932569594,
        "lon": 177.47841462910415,
        "alt_km": 800.827934849267,
        "timestamp": "2025-12-26T05:31:12.891605+00:00",
        "meta_object_name": "IRIDIUM 33 DEB",
        "meta_object_id": "1997-051DG",
        "meta_epoch": "2025-12-25T23:31:33.693312",
        "meta_mean_motion": 14.3488456,
        "meta_eccentricity": 0.00812924,
        "meta_inclination": 86.2006,
        "meta_ra_of_asc_node": 355.5626,
        "meta_arg_of_pericenter": 318.8102,
        "meta_mean_anomaly": 40.6976,
        "meta_ephemeris_type": 0,
        "meta_classification_type": "U",
        "meta_norad_cat_id": 34097,
        "meta_element_set_no": 999,
        "meta_rev_at_epoch": 87309,
        "meta_bstar": 0.0015956547,
        "meta_mean_motion_dot": 4.723e-05,
        "meta_mean_motion_ddot": 0,
        "tle_line1": "1 34097U 97051DG  25359.98025108  .00004723  00000+0  15957-2 0  9996",
        "tle_line2": "2 34097  86.2006 355.5626 0081292 318.8102  40.6976 14.34884560873096"
      },
      "geometry": {
        "type": "Point",
        "coordinates": [
          177.47841462910415,
          -28.013381932569594
        ]
      }
    },
    {
      "type": "Feature",
      "properties": {
        "norad_id": 34145,
        "name": "IRIDIUM 33 DEB",
        "group": "iridium-33-debris",
        "lat": 57.04026467003688,
        "lon": 140.65519836391726,
        "alt_km": 732.6523678849626,
        "timestamp": "2025-12-26T05:31:12.891615+00:00",
        "meta_object_name": "IRIDIUM 33 DEB",
        "meta_object_id": "1997-051DY",
        "meta_epoch": "2025-12-25T22:17:54.684096",
        "meta_mean_motion": 14.42385613,
        "meta_eccentricity": 0.00554454,
        "meta_inclination": 86.2129,
        "meta_ra_of_asc_node": 326.6523,
        "meta_arg_of_pericenter": 51.9493,
        "meta_mean_anomaly": 308.6692,
        "meta_ephemeris_type": 0,
        "meta_classification_type": "U",
        "meta_norad_cat_id": 34145,
        "meta_element_set_no": 999,
        "meta_rev_at_epoch": 87828,
        "meta_bstar": 0.001320133,
        "meta_mean_motion_dot": 4.465e-05,
        "meta_mean_motion_ddot": 0,
        "tle_line1": "1 34145U 97051DY  25359.92910514  .00004465  00000+0  13201-2 0  9991",
        "tle_line2": "2 34145  86.2129 326.6523 0055445  51.9493 308.6692 14.42385613878282"
      },
      "geometry": {
        "type": "Point",
        "coordinates": [
          140.65519836391726,
          57.04026467003688
        ]
      }
    },
    {
      "type": "Feature",
      "properties": {
        "norad_id": 34146,
        "name": "IRIDIUM 33 DEB",
        "group": "iridium-33-debris",
        "lat": 85.23976304407103,
        "lon": 35.137212766365145,
        "alt_km": 720.3772511501165,
        "timestamp": "2025-12-26T05:31:12.891626+00:00",
        "meta_object_name": "IRIDIUM 33 DEB",
        "meta_object_id": "1997-051DZ",
        "meta_epoch": "2025-12-25T22:37:42.915648",
        "meta_mean_motion": 14.49132672,
        "meta_eccentricity": 0.00270027,
        "meta_inclination": 86.2842,
        "meta_ra_of_asc_node": 343.9669,
        "meta_arg_of_pericenter": 176.2288,
        "meta_mean_anomaly": 214.0299,
        "meta_ephemeris_type": 0,
        "meta_classification_type": "U",
        "meta_norad_cat_id": 34146,
        "meta_element_set_no": 999,
        "meta_rev_at_epoch": 88298,
        "meta_bstar": 0.00090103394,
        "meta_mean_motion_dot": 3.461e-05,
        "meta_mean_motion_ddot": 0,
        "tle_line1": "1 34146U 97051DZ  25359.94285782  .00003461  00000+0  90103-3 0  9998",
        "tle_line2": "2 34146  86.2842 343.9669 0027002 176.2288 214.0299 14.49132672882986"
      },
      "geometry": {
        "type": "Point",
        "coordinates": [
          35.137212766365145,
          85.23976304407103
        ]
      }
    },
    {
      "type": "Feature",
      "properties": {
        "norad_id": 34159,
        "name": "IRIDIUM 33 DEB",
        "group": "iridium-33-debris",
        "lat": 9.108793844211162,
        "lon": 43.07482503987213,
        "alt_km": 776.9098883197566,
        "timestamp": "2025-12-26T05:31:12.891636+00:00",
        "meta_object_name": "IRIDIUM 33 DEB",
        "meta_object_id": "1997-051EN",
        "meta_epoch": "2025-12-25T12:47:00.400128",
        "meta_mean_motion": 14.38524425,
        "meta_eccentricity": 0.0026262,
        "meta_inclination": 86.3493,
        "meta_ra_of_asc_node": 42.7857,
        "meta_arg_of_pericenter": 242.6608,
        "meta_mean_anomaly": 117.1916,
        "meta_ephemeris_type": 0,
        "meta_classification_type": "U",
        "meta_norad_cat_id": 34159,
        "meta_element_set_no": 999,
        "meta_rev_at_epoch": 88143,
        "meta_bstar": 0.00040229,
        "meta_mean_motion_dot": 1.253e-05,
        "meta_mean_motion_ddot": 0,
        "tle_line1": "1 34159U 97051EN  25359.53264352  .00001253  00000+0  40229-3 0  9998",
        "tle_line2": "2 34159  86.3493  42.7857 0026262 242.6608 117.1916 14.38524425881434"
      },
      "geometry": {
        "type": "Point",
        "coordinates": [
          43.07482503987213,
          9.108793844211162
        ]
      }
    },
    {
      "type": "Feature",
      "properties": {
        "norad_id": 34350,
        "name": "IRIDIUM 33 DEB",
        "group": "iridium-33-debris",
        "lat": 11.619473178370471,
        "lon": -2.2905157437904573,
        "alt_km": 739.7714039717612,
        "timestamp": "2025-12-26T05:31:12.891647+00:00",
        "meta_object_name": "IRIDIUM 33 DEB",
        "meta_object_id": "1997-051ES",
        "meta_epoch": "2025-12-25T23:06:16.433280",
        "meta_mean_motion": 14.45417285,
        "meta_eccentricity": 0.00235183,
        "meta_inclination": 86.3273,
        "meta_ra_of_asc_node": 357.0687,
        "meta_arg_of_pericenter": 94.83,
        "meta_mean_anomaly": 327.0824,
        "meta_ephemeris_type": 0,
        "meta_classification_type": "U",
        "meta_norad_cat_id": 34350,
        "meta_element_set_no": 999,
        "meta_rev_at_epoch": 88484,
        "meta_bstar": 0.00034072842,
        "meta_mean_motion_dot": 1.223e-05,
        "meta_mean_motion_ddot": 0,
        "tle_line1": "1 34350U 97051ES  25359.96269020  .00001223  00000+0  34073-3 0  9992",
        "tle_line2": "2 34350  86.3273 357.0687 0023518  94.8300 327.0824 14.45417285884844"
      },
      "geometry": {
        "type": "Point",
        "coordinates": [
          -2.2905157437904573,
          11.619473178370471
        ]
      }
    }
  ]
}